#dP2024  9  5  0  0  0.00000000      96 __u+U IGS20 FIT  IAC
## 2330 345600.00000000   900.00000000 60558 0.0000000000000
+  133   C01C02C03C04C05C06C07C08C09C10C11C12C13C14C16C19C20
+        C21C22C23C24C25C26C27C28C29C30C32C33C34C35C36C37C38
+        C39C40C41C42C43C44C45C59C60C62E02E03E04E05E06E07E08
+        E09E10E11E12E13E14E15E18E19E21E24E25E26E27E29E30E31
+        E33E34E36G01G02G03G04G05G06G07G08G09G10G11G12G13G14
+        G15G16G17G18G19G20G21G22G23G24G25G26G27G28G29G30G31
+        G32J02J03J04J07R01R02R03R04R05R06R07R08R09R10R11R12
+        R13R14R15R16R17R18R19R20R21R22R23R24R25R26  0  0  0
++        17 17 17 17 17  9 10  9 10 10  9  9  0  9  9  7  7
++         7  7  7  7  7  7  7  7  7  7  7  7  7  7  7  7  8
++         8  8  7  8  7  7  7  0 17 17  4  4  4  4  4  4  4
++         4  4  5  5  4  4  4  5  4  4  4  5  6  4  4  4  4
++         4  4  5  9  4  4  4  4  4  4  4  3  4  4  4  4  4
++         4  4  4  4  4  4  4  4  4  4  4  4  4  4  4  4  4
++         4 10 11 11 17  7  6  6  6  6 15  6  6  6 15  6  6
++        15  6  6  6  6  6  7  7  6  6 15  6  8  8  0  0  0
%c M  cc GPS ccc cccc cccc cccc cccc ccccc ccccc ccccc ccccc
%c cc cc ccc ccc cccc cccc cccc cccc ccccc ccccc ccccc ccccc
%f  0.0000000  0.000000000  0.00000000000  0.000000000000000
%f  0.0000000  0.000000000  0.00000000000  0.000000000000000
%i    0    0    0    0      0      0      0      0         0
%i    0    0    0    0      0      0      0      0         0
/* INFORMATION & ANALYSIS CENTER (IAC)            RAPID DATA
/* S/V CLOCKS ARE ALIGNED TO GNSS TIME                      
/* G:C1WC2W R:C1PC2P E:C1XC5X C:C2IC6I J:C1CC2S             
/* PCV:IGS20_2317 OL/AL:FES2004  NONE     YN ORB:CoN CLK:CoN
*  2024 09 05  3 45  0.00000000
PC01 -34322.739022  24454.932819   1155.307414    920.229880
PC02   4361.838693  41913.881581   1428.354071    910.733133
PC03 -14852.337434  39444.638510   1149.436573    857.741337
PC04 -39610.669220  14330.091012   1134.516281    431.920690
PC05  21922.810154  36030.658840    776.724088   -396.340772
PC06 -17348.666935  36572.046821 -12244.663206    749.278833
PC07  -3819.491797  34341.098750 -23875.131867   -400.368801
PC08  -9942.028476  18903.440542  36295.258101   -504.975361
PC09 -11651.337323  35349.970650 -19899.943646   -283.772627
PC10   2899.927828  36962.660781 -19153.995778   -161.649275
PC11   2363.549318  24415.661122  13358.841040    747.010062
PC12 -10221.494547  25491.643341  -4865.924262   -265.507012
PC13      0.000000      0.000000      0.000000 999999.999999
PC14  13060.949276  22258.427348  10544.171913   -161.105152
PC16 -20222.086392  36073.900552  -8798.183136   -780.350961
PC19 -19404.723976 -20010.029036  -1593.778600   -932.554826
PC20  -6302.858235 -21504.984049 -16652.061239   -883.692307
PC21 -12070.597249   9966.841453  23104.576388   -934.679692
PC22 -22235.258250  -7000.309775  15343.484858    113.602488
PC23  26463.822709  -1232.998468  -8774.824913   -827.999695
PC24  -6196.366167  17533.123646 -20809.479544    837.816583
PC25  14405.693915  11307.409798 -21071.153157    497.538485
PC26 -22754.012540  13734.065026  -8467.158565   -344.260346
PC27  14400.260347 -20052.648872  12991.897567    364.514953
PC28  16829.657125  -3676.892723  21962.318764    282.055011
PC29  -9468.583963 -18658.718942 -18470.989134    331.194245
PC30   3718.473069 -27514.770879  -2740.328338   -191.084664
PC32  12077.596148  -9986.984852 -23085.655404   -723.873672
PC33  19461.276685  19913.660993   1710.730736   -973.055629
PC34  -2556.643851  27449.194318   4360.418188    514.292205
PC35 -16732.229064   3682.972702 -22045.509091    269.281174
PC36 -14561.272890 -11398.315830  20920.869987    176.261249
PC37  23102.542684 -13225.015386   8435.479540   -900.992849
PC38 -19630.520998  19093.973561  32049.541803    177.481011
PC39 -21872.181341  36106.431986  -2598.251376     -9.762564
PC40  -7364.512132  30725.602848 -27727.463906    -89.445735
PC41  22464.981259   7713.144476 -14592.022030   -914.328109
PC42   4557.041108  20956.626343  17869.697973   -472.400232
PC43   8967.144417  19505.553173  17826.199986     84.685274
PC44 -13763.983932  20463.799212 -13093.293568    584.009456
PC45 -26307.067508    816.086836   9238.007241   -126.884059
PC59      0.000000      0.000000      0.000000 999999.999999
PC60   7322.284700  41485.317899   1768.459305     -0.019059
PC62 -39595.632648  14372.748317  -1401.816546     -0.441113
PE02  27887.559429   9921.270293   -695.202026    156.818984
PE03  17322.543034  11942.361834 -20824.218128   -138.272910
PE04 -14409.766776  10906.235672  23442.787270    -25.281158
PE05   9963.754985  27216.577722  -6003.551123   4781.374997
PE06  -9564.071283  20483.375176  19091.970844    -22.515186
PE07   3494.004696 -26518.679085 -12693.120450   -140.345117
PE08  14611.961026  -9968.032942 -23742.393889   -330.440714
PE09  -3487.769713  26444.878886  12810.347072   -578.189126
PE10 -20864.700637  20824.059379   2585.012894   -654.019040
PE11 -13757.659697  23013.388911  12532.224419   1790.662055
PE12 -24174.666594  15788.008958  -6539.488084  -1196.671943
PE13  14223.857483 -22984.881108 -12065.819841    -24.479107
PE14   1009.362041 -29531.798133   8352.337297    206.802580
PE15  24252.121381 -15383.309916   7179.036708   -125.188911
PE18  -7997.533044  20328.094287 -13785.377876    511.704327
PE19 -16828.632590 -14077.222280  19872.252819    570.841799
PE21 -15881.229351 -17977.654909  17348.167783   -615.034118
PE24  -6117.229000  15781.490778 -24292.192902   -969.740415
PE25  15476.248447  18045.913946 -17627.078212      8.736829
PE26  -4525.137488 -16819.770971 -23931.344755   -278.357337
PE27   5909.205580 -15799.631779  24330.258561   -444.323457
PE29 -10162.236865 -27056.004335   6364.780752    -27.881591
PE30  23954.372397  -4302.098067  16851.018781   -684.055232
PE31 -23926.651518   4330.160208 -16867.130444    -34.821622
PE33 -19607.143339  -1555.568313 -22113.480920     15.107694
PE34  19899.820032   1075.494042  21888.185636   -132.502224
PE36   3907.196283  17029.220980  23894.539116   -278.904859
PG01  25484.014828   8064.973171  -1147.051085    205.066614
PG02  13478.520232 -21887.995419  -5488.097483   -364.662551
PG03   4430.533851 -14074.764600 -22249.380150    526.341366
PG04   2013.021768 -24141.186635 -10710.188387    437.672229
PG05 -20281.242590   6573.829912  15700.319863   -185.543321
PG06 -16906.189878  -2187.936929 -20333.226722     52.351345
PG07  -1948.271992 -18033.560951  19775.787441    -41.863103
PG08   9171.997521 -15953.975983  18879.813148    341.388462
PG09  -7066.227658 -25562.404109   -687.768186    343.192077
PG10  23678.933011  10762.638469   6406.665110   -115.195487
PG11 -22057.444669  10370.748154 -10445.297168   -730.837187
PG12  -8945.691111  12932.370043 -21678.652419   -535.689909
PG13 -13689.856245   7465.892512  21240.255449    674.761536
PG14 -21189.336584 -13235.930421   9383.828488    488.403966
PG15  -6861.114818  17504.912395  18178.221609    200.621997
PG16  23334.018916  -1008.508048  12717.076421   -189.573255
PG17 -13295.662227 -18107.196759 -13617.488889    635.987572
PG18   1598.798168  17331.213763  20014.912475   -651.341769
PG19 -15233.036668 -10401.416044 -19418.080916    533.915556
PG20 -25688.799017   2221.519323   6094.933719    370.959407
PG21  16584.091737 -19989.729482     26.147774    102.341257
PG22 -24260.365871 -10292.327005   1911.699407    -58.652769
PG23  14293.261945  14964.885755  16800.506964    313.100588
PG24 -13753.811443  22087.949927  -4519.240720   -486.807845
PG25   4779.767179  16443.088955 -20704.852177    499.556606
PG26  26410.170806   4298.770965    570.159460     85.870571
PG27  14442.269252  -4353.367785  21563.774888    -33.692859
PG28  15876.188245   4324.961098 -20862.042231   -399.385559
PG29   2614.937030  26156.095412  -3347.505701   -579.871753
PG30 -11721.560238 -10647.524274  21477.976503   -327.225577
PG31  21645.057085  -6593.567475 -14442.806319   -225.083825
PG32  15021.771043  16433.309731 -14419.497051   -600.082281
PJ02 -27311.389282  15517.267114 -23452.323006     -0.945779
PJ03 -27654.021304  31430.352275   -304.619831     -2.629946
PJ04 -25054.988600  26753.712799  26599.907948     22.369191
PJ07 -25333.227219  33697.584113     -5.844927      0.002313
PR01 -16721.104051 -18958.603895   3444.068534     96.745856
PR02 -15990.236338  -7803.876051  18283.848223    -24.496679
PR03  -6991.191866   8688.824875  22985.243696    106.954072
PR04   5503.860248  19800.225875  15145.949209    253.198535
PR05  15037.445517  20606.507138   -817.117767    137.188128
PR06  16032.120815   5981.589874 -18943.595799   -179.094262
PR07   6632.237326  -9081.383878 -22856.570077     90.244030
PR08  -5821.463209 -19854.984189 -14837.872377     -6.390858
PR09  25061.685323  -1400.399801  -4262.560748    207.353038
PR10  21908.220322  -7804.652635  10564.749642   -212.845452
PR11   5982.152724 -11272.292508  22096.456995     12.726729
PR12 -14995.522030  -7594.069792  19211.291859     44.468415
PR13 -24551.489385   -303.397949   6901.633010    -51.089639
PR14 -20489.595466   8607.715428 -12523.506727     26.888951
PR15  -4199.866247  11336.261079 -22438.650831     76.192707
PR16  14825.847093   7467.712616 -19338.756001     28.856800
PR17 -13521.628303  19419.592700  -9447.148583    119.206626
PR18  -7416.013700  23399.719267   7023.910424    160.496302
PR19    981.858542  16931.525130  19047.736744   -290.224510
PR20  12501.332542  -2870.295869  22052.087929   -118.674390
PR21  13807.091133 -18958.312885  10078.232921   -131.809974
PR22   7198.813613 -23097.967089  -8051.216978     54.337821
PR23  -3265.821313 -14699.375719 -20597.551138   -131.868505
PR24 -12921.370723   3811.275373 -21636.397476    -70.717234
PR25  14317.407271 -19087.779579   9065.231612   -101.002584
PR26  -4836.350314 -19239.512718 -16031.230912     17.851082
EOF
